0 FENGYUN 1C DEB
1 31069U 99025BFP 13281.27968431  .00001274  00000-0  39409-3 0  5548
2 31069 099.1154 074.7028 0138342 295.1495 063.5393 14.37895059346311
0 FENGYUN 1C DEB
1 31069U 99025BFP 13283.29764740  .00001467  00000-0  45132-3 0  5554
2 31069 099.1153 076.8437 0138348 289.1996 069.4261 14.37905889346606
0 FENGYUN 1C DEB
1 31069U 99025BFP 13287.19438028  .00001867  00000-0  56975-3 0  5566
2 31069 099.1158 080.9775 0138407 277.7172 080.8316 14.37916326347165
0 FENGYUN 1C DEB
1 31069U 99025BFP 13289.21232113  .00002080  00000-0  63269-3 0  5571
2 31069 099.1161 083.1185 0138429 271.7796 086.7539 14.37928205347452
0 FENGYUN 1C DEB
1 31069U 99025BFP 13291.23025026  .00002335  00000-0  70791-3 0  5581
2 31069 099.1164 085.2595 0138479 265.8411 092.6937 14.37935797347740
0 FENGYUN 1C DEB
1 31069U 99025BFP 13293.24816992  .00002909  00000-0  87751-3 0  5596
2 31069 099.1166 087.4004 0138493 259.9176 098.6361 14.37944995348039
0 FENGYUN 1C DEB
1 31069U 99025BFP 13295.26607856  .00003720  00000-0  11173-2 0  5605
2 31069 099.1166 089.5405 0138461 254.0030 104.5866 14.37953940348326
